ONEWEB-0181             
1 48230U 21031W   25360.91651066 -.00000022  00000+0 -94276-4 0  9991
2 48230  87.8994 324.0662 0001599  81.1077 279.0234 13.14501051225608
ONEWEB-0188             
1 48231U 21031X   25361.18292339  .00000086  00000+0  19751-3 0  9998
2 48231  87.8995 324.0100 0001786  83.8440 276.2893 13.14502519225541
ONEWEB-0220             
1 48232U 21031Y   25361.29868307 -.00000001  00000+0 -36679-4 0  9993
2 48232  87.9012 323.9372 0001623  88.4041 271.7274 13.14501578225828
ONEWEB-0165             
1 48233U 21031Z   25361.17499988 -.00000086  00000+0 -26558-3 0  9993
2 48233  87.8995 323.9859 0001527  75.0332 285.0966 13.14501782225762
ONEWEB-0199             
1 48234U 21031AA  25361.15914113 -.00000173  00000+0 -50192-3 0  9992
2 48234  87.9005 323.9659 0001964  80.9399 279.1953 13.14501481225662
ONEWEB-0203             
1 48235U 21031AB  25361.30185763 -.00000016  00000+0 -77906-4 0  9990
2 48235  87.9004 323.9374 0001774  74.1877 285.9448 13.14501445225698
ONEWEB-0197             
1 48236U 21031AC  25361.27634632  .00000222  00000+0  56321-3 0  9995
2 48236  87.9006 323.9415 0001909  91.4855 268.6494 13.14501609225607
ONEWEB-0194             
1 48237U 21031AD  25361.17974618  .00000057  00000+0  11858-3 0  9998
2 48237  87.9006 323.9777 0001978  77.7965 282.3386 13.14500915225763
ONEWEB-0193             
1 48238U 21031AE  25361.27172760  .00000291  00000+0  75071-3 0  9995
2 48238  87.9004 323.9537 0002186  75.2802 284.8570 13.14501169225721
ONEWEB-0191             
1 48239U 21031AF  25360.90225457  .00000264  00000+0  67632-3 0  9991
2 48239  87.9021 324.0187 0001785  76.4058 283.7271 13.14502776225534
ONEWEB-0195             
1 48240U 21031AG  25361.25984058  .00000230  00000+0  58598-3 0  9995
2 48240  87.9015 323.9445 0001433  76.1873 283.9417 13.14504098225562
ONEWEB-0201             
1 48241U 21031AH  25361.17197726 -.00000093  00000+0 -28545-3 0  9993
2 48241  87.8995 323.9982 0001634  91.3490 268.7827 13.14503910225784
ONEWEB-0207             
1 48242U 21031AJ  25361.30424058 -.00000050  00000+0 -16835-3 0  9992
2 48242  87.9010 323.9369 0001733  89.5406 270.5923 13.14504076225714
ONEWEB-0208             
1 48243U 21031AK  25361.28600892  .00000271  00000+0  69697-3 0  9999
2 48243  87.9010 323.9539 0001541  76.6850 283.4452 13.14502139225720
ONEWEB-0200             
1 48244U 21031AL  25360.94506471 -.00000124  00000+0 -36985-3 0  9993
2 48244  87.8999 324.0111 0001699  82.9597 277.1726 13.14502700225601
ONEWEB-0217             
1 48245U 21031AM  25361.26537980  .00000128  00000+0  30962-3 0  9990
2 48245  87.9016 323.9434 0001503  76.9114 283.2183 13.14501507225598
