[{"OBJECT_NAME":"ONEWEB-0181","OBJECT_ID":"2021-031W","EPOCH":"2025-12-26T21:59:46.521024","MEAN_MOTION":13.14501051,"ECCENTRICITY":0.0001599,"INCLINATION":87.8994,"RA_OF_ASC_NODE":324.0662,"ARG_OF_PERICENTER":81.1077,"MEAN_ANOMALY":279.0234,"EPHEMERIS_TYPE":0,"CLASSIFICATION_TYPE":"U","NORAD_CAT_ID":48230,"ELEMENT_SET_NO":999,"REV_AT_EPOCH":22560,"BSTAR":-9.4276e-5,"MEAN_MOTION_DOT":-2.2e-7,"MEAN_MOTION_DDOT":0},{"OBJECT_NAME":"ONEWEB-0188","OBJECT_ID":"2021-031X","EPOCH":"2025-12-27T04:23:24.580896","MEAN_MOTION":13.14502519,"ECCENTRICITY":0.00017867,"INCLINATION":87.8995,"RA_OF_ASC_NODE":324.01,"ARG_OF_PERICENTER":83.844,"MEAN_ANOMALY":276.2893,"EPHEMERIS_TYPE":0,"CLASSIFICATION_TYPE":"U","NORAD_CAT_ID":48231,"ELEMENT_SET_NO":999,"REV_AT_EPOCH":22554,"BSTAR":0.00019751329,"MEAN_MOTION_DOT":8.6e-7,"MEAN_MOTION_DDOT":0},{"OBJECT_NAME":"ONEWEB-0220","OBJECT_ID":"2021-031Y","EPOCH":"2025-12-27T07:10:06.217248","MEAN_MOTION":13.14501578,"ECCENTRICITY":0.00016235,"INCLINATION":87.9012,"RA_OF_ASC_NODE":323.9372,"ARG_OF_PERICENTER":88.4041,"MEAN_ANOMALY":271.7274,"EPHEMERIS_TYPE":0,"CLASSIFICATION_TYPE":"U","NORAD_CAT_ID":48232,"ELEMENT_SET_NO":999,"REV_AT_EPOCH":22582,"BSTAR":-3.6679466e-5,"MEAN_MOTION_DOT":-1.0e-8,"MEAN_MOTION_DDOT":0},{"OBJECT_NAME":"ONEWEB-0165","OBJECT_ID":"2021-031Z","EPOCH":"2025-12-27T04:11:59.989632","MEAN_MOTION":13.14501782,"ECCENTRICITY":0.0001527,"INCLINATION":87.8995,"RA_OF_ASC_NODE":323.9859,"ARG_OF_PERICENTER":75.0332,"MEAN_ANOMALY":285.0966,"EPHEMERIS_TYPE":0,"CLASSIFICATION_TYPE":"U","NORAD_CAT_ID":48233,"ELEMENT_SET_NO":999,"REV_AT_EPOCH":22576,"BSTAR":-0.00026557614,"MEAN_MOTION_DOT":-8.6e-7,"MEAN_MOTION_DDOT":0},{"OBJECT_NAME":"ONEWEB-0199","OBJECT_ID":"2021-031AA","EPOCH":"2025-12-27T03:49:09.793632","MEAN_MOTION":13.14501481,"ECCENTRICITY":0.00019648,"INCLINATION":87.9005,"RA_OF_ASC_NODE":323.9659,"ARG_OF_PERICENTER":80.9399,"MEAN_ANOMALY":279.1953,"EPHEMERIS_TYPE":0,"CLASSIFICATION_TYPE":"U","NORAD_CAT_ID":48234,"ELEMENT_SET_NO":999,"REV_AT_EPOCH":22566,"BSTAR":-0.00050191838,"MEAN_MOTION_DOT":-1.73e-6,"MEAN_MOTION_DDOT":0},{"OBJECT_NAME":"ONEWEB-0203","OBJECT_ID":"2021-031AB","EPOCH":"2025-12-27T07:14:40.499232","MEAN_MOTION":13.14501445,"ECCENTRICITY":0.00017746,"INCLINATION":87.9004,"RA_OF_ASC_NODE":323.9374,"ARG_OF_PERICENTER":74.1877,"MEAN_ANOMALY":285.9448,"EPHEMERIS_TYPE":0,"CLASSIFICATION_TYPE":"U","NORAD_CAT_ID":48235,"ELEMENT_SET_NO":999,"REV_AT_EPOCH":22569,"BSTAR":-7.790637e-5,"MEAN_MOTION_DOT":-1.6e-7,"MEAN_MOTION_DDOT":0},{"OBJECT_NAME":"ONEWEB-0197","OBJECT_ID":"2021-031AC","EPOCH":"2025-12-27T06:37:56.322048","MEAN_MOTION":13.14501609,"ECCENTRICITY":0.00019097,"INCLINATION":87.9006,"RA_OF_ASC_NODE":323.9415,"ARG_OF_PERICENTER":91.4855,"MEAN_ANOMALY":268.6494,"EPHEMERIS_TYPE":0,"CLASSIFICATION_TYPE":"U","NORAD_CAT_ID":48236,"ELEMENT_SET_NO":999,"REV_AT_EPOCH":22560,"BSTAR":0.00056320926,"MEAN_MOTION_DOT":2.22e-6,"MEAN_MOTION_DDOT":0},{"OBJECT_NAME":"ONEWEB-0194","OBJECT_ID":"2021-031AD","EPOCH":"2025-12-27T04:18:50.069952","MEAN_MOTION":13.14500915,"ECCENTRICITY":0.00019785,"INCLINATION":87.9006,"RA_OF_ASC_NODE":323.9777,"ARG_OF_PERICENTER":77.7965,"MEAN_ANOMALY":282.3386,"EPHEMERIS_TYPE":0,"CLASSIFICATION_TYPE":"U","NORAD_CAT_ID":48237,"ELEMENT_SET_NO":999,"REV_AT_EPOCH":22576,"BSTAR":0.00011857509,"MEAN_MOTION_DOT":5.7e-7,"MEAN_MOTION_DDOT":0},{"OBJECT_NAME":"ONEWEB-0193","OBJECT_ID":"2021-031AE","EPOCH":"2025-12-27T06:31:17.264640","MEAN_MOTION":13.14501169,"ECCENTRICITY":0.00021862,"INCLINATION":87.9004,"RA_OF_ASC_NODE":323.9537,"ARG_OF_PERICENTER":75.2802,"MEAN_ANOMALY":284.857,"EPHEMERIS_TYPE":0,"CLASSIFICATION_TYPE":"U","NORAD_CAT_ID":48238,"ELEMENT_SET_NO":999,"REV_AT_EPOCH":22572,"BSTAR":0.00075070935,"MEAN_MOTION_DOT":2.91e-6,"MEAN_MOTION_DDOT":0},{"OBJECT_NAME":"ONEWEB-0191","OBJECT_ID":"2021-031AF","EPOCH":"2025-12-26T21:39:14.794848","MEAN_MOTION":13.14502776,"ECCENTRICITY":0.0001785,"INCLINATION":87.9021,"RA_OF_ASC_NODE":324.0187,"ARG_OF_PERICENTER":76.4058,"MEAN_ANOMALY":283.7271,"EPHEMERIS_TYPE":0,"CLASSIFICATION_TYPE":"U","NORAD_CAT_ID":48239,"ELEMENT_SET_NO":999,"REV_AT_EPOCH":22553,"BSTAR":0.00067632,"MEAN_MOTION_DOT":2.64e-6,"MEAN_MOTION_DDOT":0},{"OBJECT_NAME":"ONEWEB-0195","OBJECT_ID":"2021-031AG","EPOCH":"2025-12-27T06:14:10.226112","MEAN_MOTION":13.14504098,"ECCENTRICITY":0.00014331,"INCLINATION":87.9015,"RA_OF_ASC_NODE":323.9445,"ARG_OF_PERICENTER":76.1873,"MEAN_ANOMALY":283.9417,"EPHEMERIS_TYPE":0,"CLASSIFICATION_TYPE":"U","NORAD_CAT_ID":48240,"ELEMENT_SET_NO":999,"REV_AT_EPOCH":22556,"BSTAR":0.00058597953,"MEAN_MOTION_DOT":2.3e-6,"MEAN_MOTION_DDOT":0},{"OBJECT_NAME":"ONEWEB-0201","OBJECT_ID":"2021-031AH","EPOCH":"2025-12-27T04:07:38.835264","MEAN_MOTION":13.1450391,"ECCENTRICITY":0.00016348,"INCLINATION":87.8995,"RA_OF_ASC_NODE":323.9982,"ARG_OF_PERICENTER":91.349,"MEAN_ANOMALY":268.7827,"EPHEMERIS_TYPE":0,"CLASSIFICATION_TYPE":"U","NORAD_CAT_ID":48241,"ELEMENT_SET_NO":999,"REV_AT_EPOCH":22578,"BSTAR":-0.00028545153,"MEAN_MOTION_DOT":-9.3e-7,"MEAN_MOTION_DDOT":0},{"OBJECT_NAME":"ONEWEB-0207","OBJECT_ID":"2021-031AJ","EPOCH":"2025-12-27T07:18:06.386112","MEAN_MOTION":13.14504076,"ECCENTRICITY":0.00017335,"INCLINATION":87.901,"RA_OF_ASC_NODE":323.9369,"ARG_OF_PERICENTER":89.5406,"MEAN_ANOMALY":270.5923,"EPHEMERIS_TYPE":0,"CLASSIFICATION_TYPE":"U","NORAD_CAT_ID":48242,"ELEMENT_SET_NO":999,"REV_AT_EPOCH":22571,"BSTAR":-0.00016834629,"MEAN_MOTION_DOT":-5.0e-7,"MEAN_MOTION_DDOT":0},{"OBJECT_NAME":"ONEWEB-0208","OBJECT_ID":"2021-031AK","EPOCH":"2025-12-27T06:51:51.170688","MEAN_MOTION":13.14502139,"ECCENTRICITY":0.00015417,"INCLINATION":87.901,"RA_OF_ASC_NODE":323.9539,"ARG_OF_PERICENTER":76.685,"MEAN_ANOMALY":283.4452,"EPHEMERIS_TYPE":0,"CLASSIFICATION_TYPE":"U","NORAD_CAT_ID":48243,"ELEMENT_SET_NO":999,"REV_AT_EPOCH":22572,"BSTAR":0.00069697187,"MEAN_MOTION_DOT":2.71e-6,"MEAN_MOTION_DDOT":0},{"OBJECT_NAME":"ONEWEB-0200","OBJECT_ID":"2021-031AL","EPOCH":"2025-12-26T22:40:53.590944","MEAN_MOTION":13.145027,"ECCENTRICITY":0.0001699,"INCLINATION":87.8999,"RA_OF_ASC_NODE":324.0111,"ARG_OF_PERICENTER":82.9597,"MEAN_ANOMALY":277.1726,"EPHEMERIS_TYPE":0,"CLASSIFICATION_TYPE":"U","NORAD_CAT_ID":48244,"ELEMENT_SET_NO":999,"REV_AT_EPOCH":22560,"BSTAR":-0.00036985,"MEAN_MOTION_DOT":-1.24e-6,"MEAN_MOTION_DDOT":0},{"OBJECT_NAME":"ONEWEB-0217","OBJECT_ID":"2021-031AM","EPOCH":"2025-12-27T06:22:08.814720","MEAN_MOTION":13.14501507,"ECCENTRICITY":0.00015033,"INCLINATION":87.9016,"RA_OF_ASC_NODE":323.9434,"ARG_OF_PERICENTER":76.9114,"MEAN_ANOMALY":283.2183,"EPHEMERIS_TYPE":0,"CLASSIFICATION_TYPE":"U","NORAD_CAT_ID":48245,"ELEMENT_SET_NO":999,"REV_AT_EPOCH":22559,"BSTAR":0.00030961845,"MEAN_MOTION_DOT":1.28e-6,"MEAN_MOTION_DDOT":0}]
